{"epoch":1784762836,"count":18316,"objects":[{"id":"37846","name":"GALILEO-PFM","type":"PAYLOAD","l1":"1 37846U 11060A   26203.04348625 -.00000107  00000-0  00000-0 0  9990","l2":"2 37846  56.9816 340.8168 0002032  64.0635 295.9520  1.70475789 91714"},{"id":"37847","name":"GALILEO-FM2","type":"PAYLOAD","l1":"1 37847U 11060B   26202.38421657 -.00000107  00000-0  00000-0 0  9994","l2":"2 37847  56.9829 340.8353 0001996   5.2866 355.7737  1.70476023 91713"},{"id":"38857","name":"GALILEO-FM3","type":"PAYLOAD","l1":"1 38857U 12055A   26200.15144010 -.00000035  00000-0  00000-0 0  9999","l2":"2 38857  55.8248 100.6680 0003622 312.6356  47.3724  1.70473478 85556"},{"id":"40128","name":"GALILEO 5 (261)","type":"PAYLOAD","l1":"1 40128U 14050A   26202.91197597 -.00000055  00000-0  00000-0 0  9996","l2":"2 40128  48.8375 272.0101 1679297 180.7600 179.0021  1.85519659 78967"},{"id":"40129","name":"GALILEO 6 (262)","type":"PAYLOAD","l1":"1 40129U 14050B   26202.62841053 -.00000055  00000-0  00000-0 0  9998","l2":"2 40129  48.8552 271.1079 1680666 181.4563 178.0378  1.85520496 81124"},{"id":"40544","name":"GALILEO 7 (263)","type":"PAYLOAD","l1":"1 40544U 15017A   26202.23459517 -.00000108  00000-0  00000-0 0  9999","l2":"2 40544  56.7744 340.6686 0002841 253.2571 106.7061  1.70476352 69781"},{"id":"40545","name":"GALILEO 8 (264)","type":"PAYLOAD","l1":"1 40545U 15017B   26201.31731189 -.00000108  00000-0  00000-0 0  9996","l2":"2 40545  56.7823 340.7123 0002939 234.3577 125.6085  1.70475832 32813"},{"id":"40890","name":"GALILEO 10 (206)","type":"PAYLOAD","l1":"1 40890U 15045B   26201.30589843  .00000058  00000-0  00000-0 0  9990","l2":"2 40890  54.9380 220.6893 0002088 330.0131  30.0144  1.70473732 67606"},{"id":"41174","name":"GALILEO 12 (269)","type":"PAYLOAD","l1":"1 41174U 15079A   26200.88772413 -.00000039  00000-0  00000-0 0  9992","l2":"2 41174  55.8457 100.3644 0004619 358.4074   1.6290  1.70473671 65333"},{"id":"41175","name":"GALILEO 11 (268)","type":"PAYLOAD","l1":"1 41175U 15079B   26202.86782092 -.00000047  00000-0  00000-0 0  9996","l2":"2 41175  55.8455 100.3069 0004206   2.1198 357.9162  1.70473606 65787"},{"id":"41549","name":"GALILEO 14 (26B)","type":"PAYLOAD","l1":"1 41549U 16030A   26201.23161694  .00000057  00000-0  00000-0 0  9998","l2":"2 41549  55.0891 220.7852 0003444 318.9851  41.0285  1.70473740 63236"},{"id":"41550","name":"GALILEO 13 (26A)","type":"PAYLOAD","l1":"1 41550U 16030B   26202.66202904  .00000067  00000-0  00000-0 0  9999","l2":"2 41550  55.0875 220.7441 0004716 247.5267 112.4667  1.70473953 63250"},{"id":"41859","name":"GALILEO 15 (267)","type":"PAYLOAD","l1":"1 41859U 16069A   26202.94068604 -.00000048  00000-0  00000-0 0  9991","l2":"2 41859  55.5185 100.1241 0004494 340.0542  19.9624  1.70473718 59997"}]}