[
    {
        "OBJECT_NAME": "GSAT0101 (GALILEO-PFM)",
        "OBJECT_ID": "2011-060A",
        "EPOCH": "2026-07-22T01:02:37.212000",
        "MEAN_MOTION": 1.70475789,
        "ECCENTRICITY": 0.00020319,
        "INCLINATION": 56.9816,
        "RA_OF_ASC_NODE": 340.8168,
        "ARG_OF_PERICENTER": 64.0635,
        "MEAN_ANOMALY": 295.952,
        "EPHEMERIS_TYPE": 0,
        "CLASSIFICATION_TYPE": "U",
        "NORAD_CAT_ID": 37846,
        "ELEMENT_SET_NO": 999,
        "REV_AT_EPOCH": 9171,
        "BSTAR": 0,
        "MEAN_MOTION_DOT": -1.07e-06,
        "MEAN_MOTION_DDOT": 0
    },
    {
        "OBJECT_NAME": "GSAT0102 (GALILEO-FM2)",
        "OBJECT_ID": "2011-060B",
        "EPOCH": "2026-07-21T09:13:16.311648",
        "MEAN_MOTION": 1.70476023,
        "ECCENTRICITY": 0.00019957,
        "INCLINATION": 56.9829,
        "RA_OF_ASC_NODE": 340.8353,
        "ARG_OF_PERICENTER": 5.2866,
        "MEAN_ANOMALY": 355.7737,
        "EPHEMERIS_TYPE": 0,
        "CLASSIFICATION_TYPE": "U",
        "NORAD_CAT_ID": 37847,
        "ELEMENT_SET_NO": 999,
        "REV_AT_EPOCH": 9171,
        "BSTAR": 0,
        "MEAN_MOTION_DOT": -1.07e-06,
        "MEAN_MOTION_DDOT": 0
    },
    {
        "OBJECT_NAME": "GSAT0103 (GALILEO-FM3)",
        "OBJECT_ID": "2012-055A",
        "EPOCH": "2026-07-19T03:38:04.424640",
        "MEAN_MOTION": 1.70473478,
        "ECCENTRICITY": 0.0003622,
        "INCLINATION": 55.8248,
        "RA_OF_ASC_NODE": 100.668,
        "ARG_OF_PERICENTER": 312.6356,
        "MEAN_ANOMALY": 47.3724,
        "EPHEMERIS_TYPE": 0,
        "CLASSIFICATION_TYPE": "U",
        "NORAD_CAT_ID": 38857,
        "ELEMENT_SET_NO": 999,
        "REV_AT_EPOCH": 8555,
        "BSTAR": 0,
        "MEAN_MOTION_DOT": -3.5e-07,
        "MEAN_MOTION_DDOT": 0
    },
    {
        "OBJECT_NAME": "GSAT0201 (GALILEO 5)",
        "OBJECT_ID": "2014-050A",
        "EPOCH": "2026-07-21T21:53:14.723808",
        "MEAN_MOTION": 1.85519659,
        "ECCENTRICITY": 0.16792967,
        "INCLINATION": 48.8375,
        "RA_OF_ASC_NODE": 272.0101,
        "ARG_OF_PERICENTER": 180.76,
        "MEAN_ANOMALY": 179.0021,
        "EPHEMERIS_TYPE": 0,
        "CLASSIFICATION_TYPE": "U",
        "NORAD_CAT_ID": 40128,
        "ELEMENT_SET_NO": 999,
        "REV_AT_EPOCH": 7896,
        "BSTAR": 0,
        "MEAN_MOTION_DOT": -5.5e-07,
        "MEAN_MOTION_DDOT": 0
    },
    {
        "OBJECT_NAME": "GSAT0202 (GALILEO 6)",
        "OBJECT_ID": "2014-050B",
        "EPOCH": "2026-07-21T15:04:54.669792",
        "MEAN_MOTION": 1.85520496,
        "ECCENTRICITY": 0.16806659,
        "INCLINATION": 48.8552,
        "RA_OF_ASC_NODE": 271.1079,
        "ARG_OF_PERICENTER": 181.4563,
        "MEAN_ANOMALY": 178.0378,
        "EPHEMERIS_TYPE": 0,
        "CLASSIFICATION_TYPE": "U",
        "NORAD_CAT_ID": 40129,
        "ELEMENT_SET_NO": 999,
        "REV_AT_EPOCH": 8112,
        "BSTAR": 0,
        "MEAN_MOTION_DOT": -5.5e-07,
        "MEAN_MOTION_DDOT": 0
    },
    {
        "OBJECT_NAME": "GSAT0203 (GALILEO 7)",
        "OBJECT_ID": "2015-017A",
        "EPOCH": "2026-07-21T05:37:49.022688",
        "MEAN_MOTION": 1.70476352,
        "ECCENTRICITY": 0.00028415,
        "INCLINATION": 56.7744,
        "RA_OF_ASC_NODE": 340.6686,
        "ARG_OF_PERICENTER": 253.2571,
        "MEAN_ANOMALY": 106.7061,
        "EPHEMERIS_TYPE": 0,
        "CLASSIFICATION_TYPE": "U",
        "NORAD_CAT_ID": 40544,
        "ELEMENT_SET_NO": 999,
        "REV_AT_EPOCH": 6978,
        "BSTAR": 0,
        "MEAN_MOTION_DOT": -1.08e-06,
        "MEAN_MOTION_DDOT": 0
    },
    {
        "OBJECT_NAME": "GSAT0204 (GALILEO 8)",
        "OBJECT_ID": "2015-017B",
        "EPOCH": "2026-07-20T07:36:55.747296",
        "MEAN_MOTION": 1.70475832,
        "ECCENTRICITY": 0.0002939,
        "INCLINATION": 56.7823,
        "RA_OF_ASC_NODE": 340.7123,
        "ARG_OF_PERICENTER": 234.3577,
        "MEAN_ANOMALY": 125.6085,
        "EPHEMERIS_TYPE": 0,
        "CLASSIFICATION_TYPE": "U",
        "NORAD_CAT_ID": 40545,
        "ELEMENT_SET_NO": 999,
        "REV_AT_EPOCH": 3281,
        "BSTAR": 0,
        "MEAN_MOTION_DOT": -1.08e-06,
        "MEAN_MOTION_DDOT": 0
    },
    {
        "OBJECT_NAME": "GSAT0206 (GALILEO 10)",
        "OBJECT_ID": "2015-045B",
        "EPOCH": "2026-07-20T07:20:29.624352",
        "MEAN_MOTION": 1.70473732,
        "ECCENTRICITY": 0.0002088,
        "INCLINATION": 54.938,
        "RA_OF_ASC_NODE": 220.6893,
        "ARG_OF_PERICENTER": 330.0131,
        "MEAN_ANOMALY": 30.0144,
        "EPHEMERIS_TYPE": 0,
        "CLASSIFICATION_TYPE": "U",
        "NORAD_CAT_ID": 40890,
        "ELEMENT_SET_NO": 999,
        "REV_AT_EPOCH": 6760,
        "BSTAR": 0,
        "MEAN_MOTION_DOT": 5.8e-07,
        "MEAN_MOTION_DDOT": 0
    },
    {
        "OBJECT_NAME": "GSAT0209 (GALILEO 12)",
        "OBJECT_ID": "2015-079A",
        "EPOCH": "2026-07-19T21:18:19.364832",
        "MEAN_MOTION": 1.70473671,
        "ECCENTRICITY": 0.00046186,
        "INCLINATION": 55.8457,
        "RA_OF_ASC_NODE": 100.3644,
        "ARG_OF_PERICENTER": 358.4074,
        "MEAN_ANOMALY": 1.629,
        "EPHEMERIS_TYPE": 0,
        "CLASSIFICATION_TYPE": "U",
        "NORAD_CAT_ID": 41174,
        "ELEMENT_SET_NO": 999,
        "REV_AT_EPOCH": 6533,
        "BSTAR": 0,
        "MEAN_MOTION_DOT": -3.9e-07,
        "MEAN_MOTION_DDOT": 0
    },
    {
        "OBJECT_NAME": "GSAT0208 (GALILEO 11)",
        "OBJECT_ID": "2015-079B",
        "EPOCH": "2026-07-21T20:49:39.727488",
        "MEAN_MOTION": 1.70473606,
        "ECCENTRICITY": 0.00042062,
        "INCLINATION": 55.8455,
        "RA_OF_ASC_NODE": 100.3069,
        "ARG_OF_PERICENTER": 2.1198,
        "MEAN_ANOMALY": 357.9162,
        "EPHEMERIS_TYPE": 0,
        "CLASSIFICATION_TYPE": "U",
        "NORAD_CAT_ID": 41175,
        "ELEMENT_SET_NO": 999,
        "REV_AT_EPOCH": 6578,
        "BSTAR": 0,
        "MEAN_MOTION_DOT": -4.7e-07,
        "MEAN_MOTION_DDOT": 0
    },
    {
        "OBJECT_NAME": "GSAT0211 (GALILEO 14)",
        "OBJECT_ID": "2016-030A",
        "EPOCH": "2026-07-20T05:33:31.703616",
        "MEAN_MOTION": 1.7047374,
        "ECCENTRICITY": 0.00034438,
        "INCLINATION": 55.0891,
        "RA_OF_ASC_NODE": 220.7852,
        "ARG_OF_PERICENTER": 318.9851,
        "MEAN_ANOMALY": 41.0285,
        "EPHEMERIS_TYPE": 0,
        "CLASSIFICATION_TYPE": "U",
        "NORAD_CAT_ID": 41549,
        "ELEMENT_SET_NO": 999,
        "REV_AT_EPOCH": 6323,
        "BSTAR": 0,
        "MEAN_MOTION_DOT": 5.7e-07,
        "MEAN_MOTION_DDOT": 0
    },
    {
        "OBJECT_NAME": "GSAT0210 (GALILEO 13)",
        "OBJECT_ID": "2016-030B",
        "EPOCH": "2026-07-21T15:53:19.309056",
        "MEAN_MOTION": 1.70473953,
        "ECCENTRICITY": 0.00047159,
        "INCLINATION": 55.0875,
        "RA_OF_ASC_NODE": 220.7441,
        "ARG_OF_PERICENTER": 247.5267,
        "MEAN_ANOMALY": 112.4667,
        "EPHEMERIS_TYPE": 0,
        "CLASSIFICATION_TYPE": "U",
        "NORAD_CAT_ID": 41550,
        "ELEMENT_SET_NO": 999,
        "REV_AT_EPOCH": 6325,
        "BSTAR": 0,
        "MEAN_MOTION_DOT": 6.7e-07,
        "MEAN_MOTION_DDOT": 0
    },
    {
        "OBJECT_NAME": "GSAT0207 (GALILEO 15)",
        "OBJECT_ID": "2016-069A",
        "EPOCH": "2026-07-21T22:34:35.273856",
        "MEAN_MOTION": 1.70473718,
        "ECCENTRICITY": 0.00044937,
        "INCLINATION": 55.5185,
        "RA_OF_ASC_NODE": 100.1241,
        "ARG_OF_PERICENTER": 340.0542,
        "MEAN_ANOMALY": 19.9624,
        "EPHEMERIS_TYPE": 0,
        "CLASSIFICATION_TYPE": "U",
        "NORAD_CAT_ID": 41859,
        "ELEMENT_SET_NO": 999,
        "REV_AT_EPOCH": 5999,
        "BSTAR": 0,
        "MEAN_MOTION_DOT": -4.8e-07,
        "MEAN_MOTION_DDOT": 0
    }
]
